{"type": "FeatureCollection", "features": [ {"type": "Feature", "properties": {"norad_id": 66329, "name": "STARLINK-35505", "group": "last-30-days", "lat": -0.15104001425768052, "lon": -158.02852691032922, "alt_km": 414.37255351828026, "timestamp": "2025-12-06T09:34:15.697246+00:00", "meta": {"OBJECT_NAME": "STARLINK-35505", "OBJECT_ID": "2025-253L", "EPOCH": "2025-12-05T20:25:59.154240", "MEAN_MOTION": 15.50829016, "ECCENTRICITY": 0.00016573, "INCLINATION": 43.0002, "RA_OF_ASC_NODE": 25.0138, "ARG_OF_PERICENTER": 320.9763, "MEAN_ANOMALY": 39.0978, "EPHEMERIS_TYPE": 0, "CLASSIFICATION_TYPE": "U", "NORAD_CAT_ID": 66329, "ELEMENT_SET_NO": 999, "REV_AT_EPOCH": 586, "BSTAR": 0.0032245979, "MEAN_MOTION_DOT": 0.00195359, "MEAN_MOTION_DDOT": 0}, "tle": {"line1": "1 66329U 25253L   25339.85137910  .00195359  00000+0  32246-2 0  9999", "line2": "2 66329  43.0002  25.0138 0001657 320.9763  39.0978 15.50829016  5867"}}, "geometry": {"type": "Point", "coordinates": [-158.02852691032922, -0.15104001425768052]}}, {"type": "Feature", "properties": {"norad_id": 66330, "name": "STARLINK-35512", "group": "last-30-days", "lat": -6.171126851571272, "lon": 15.601687980719504, "alt_km": 443.93922160304646, "timestamp": "2025-12-06T09:34:15.697256+00:00", "meta": {"OBJECT_NAME": "STARLINK-35512", "OBJECT_ID": "2025-253M", "EPOCH": "2025-12-05T13:23:05.924544", "MEAN_MOTION": 15.40729408, "ECCENTRICITY": 7.354e-05, "INCLINATION": 43.0001, "RA_OF_ASC_NODE": 27.1135, "ARG_OF_PERICENTER": 275.711, "MEAN_ANOMALY": 84.3663, "EPHEMERIS_TYPE": 0, "CLASSIFICATION_TYPE": "U", "NORAD_CAT_ID": 66330, "ELEMENT_SET_NO": 999, "REV_AT_EPOCH": 581, "BSTAR": 0.0018572731, "MEAN_MOTION_DOT": 0.00078154, "MEAN_MOTION_DDOT": 0}, "tle": {"line1": "1 66330U 25253M   25339.55770746  .00078154  00000+0  18573-2 0  9998", "line2": "2 66330  43.0001  27.1135 0000735 275.7110  84.3663 15.40729408  5819"}}, "geometry": {"type": "Point", "coordinates": [15.601687980719504, -6.171126851571272]}}, {"type": "Feature", "properties": {"norad_id": 66331, "name": "STARLINK-35257", "group": "last-30-days", "lat": -8.604712104836503, "lon": -148.88077234656157, "alt_km": 430.2076625136624, "timestamp": "2025-12-06T09:34:15.697268+00:00", "meta": {"OBJECT_NAME": "STARLINK-35257", "OBJECT_ID": "2025-253N", "EPOCH": "2025-12-05T22:00:03.000096", "MEAN_MOTION": 15.47801433, "ECCENTRICITY": 0.00014674, "INCLINATION": 43.0006, "RA_OF_ASC_NODE": 24.5779, "ARG_OF_PERICENTER": 271.3452, "MEAN_ANOMALY": 113.7237, "EPHEMERIS_TYPE": 0, "CLASSIFICATION_TYPE": "U", "NORAD_CAT_ID": 66331, "ELEMENT_SET_NO": 999, "REV_AT_EPOCH": 556, "BSTAR": -0.044296759, "MEAN_MOTION_DOT": -0.02091525, "MEAN_MOTION_DDOT": 0}, "tle": {"line1": "1 66331U 25253N   25339.91670139 -.02091525  00000+0 -44297-1 0  9996", "line2": "2 66331  43.0006  24.5779 0001467 271.3452 113.7237 15.47801433  5566"}}, "geometry": {"type": "Point", "coordinates": [-148.88077234656157, -8.604712104836503]}}, {"type": "Feature", "properties": {"norad_id": 66332, "name": "STARLINK-35322", "group": "last-30-days", "lat": 41.77763007966127, "lon": 95.53069547024538, "alt_km": 438.06742439568916, "timestamp": "2025-12-06T09:34:15.697278+00:00", "meta": {"OBJECT_NAME": "STARLINK-35322", "OBJECT_ID": "2025-253P", "EPOCH": "2025-12-05T22:00:03.000096", "MEAN_MOTION": 15.40659875, "ECCENTRICITY": 9.651e-05, "INCLINATION": 43.0009, "RA_OF_ASC_NODE": 24.8325, "ARG_OF_PERICENTER": 249.9278, "MEAN_ANOMALY": 30.7759, "EPHEMERIS_TYPE": 0, "CLASSIFICATION_TYPE": "U", "NORAD_CAT_ID": 66332, "ELEMENT_SET_NO": 999, "REV_AT_EPOCH": 583, "BSTAR": 0.00091445888, "MEAN_MOTION_DOT": 0.00038035, "MEAN_MOTION_DDOT": 0}, "tle": {"line1": "1 66332U 25253P   25339.91670139  .00038035  00000+0  91446-3 0  9990", "line2": "2 66332  43.0009  24.8325 0000965 249.9278  30.7759 15.40659875  5830"}}, "geometry": {"type": "Point", "coordinates": [95.53069547024538, 41.77763007966127]}}, {"type": "Feature", "properties": {"norad_id": 66333, "name": "STARLINK-35400", "group": "last-30-days", "lat": 18.390127135271502, "lon": -179.03050908066473, "alt_km": 442.4897639085448, "timestamp": "2025-12-06T09:34:15.697290+00:00", "meta": {"OBJECT_NAME": "STARLINK-35400", "OBJECT_ID": "2025-253Q", "EPOCH": "2025-12-05T22:00:03.000096", "MEAN_MOTION": 15.41392191, "ECCENTRICITY": 0.00015645, "INCLINATION": 43.0005, "RA_OF_ASC_NODE": 24.6509, "ARG_OF_PERICENTER": 254.2324, "MEAN_ANOMALY": 100.7618, "EPHEMERIS_TYPE": 0, "CLASSIFICATION_TYPE": "U", "NORAD_CAT_ID": 66333, "ELEMENT_SET_NO": 999, "REV_AT_EPOCH": 583, "BSTAR": -0.026178148, "MEAN_MOTION_DOT": -0.01017509, "MEAN_MOTION_DDOT": 0}, "tle": {"line1": "1 66333U 25253Q   25339.91670139 -.01017509  00000+0 -26178-1 0  9995", "line2": "2 66333  43.0005  24.6509 0001564 254.2324 100.7618 15.41392191  5834"}}, "geometry": {"type": "Point", "coordinates": [-179.03050908066473, 18.390127135271502]}}, {"type": "Feature", "properties": {"norad_id": 66334, "name": "STARLINK-35407", "group": "last-30-days", "lat": 18.64800551254085, "lon": 43.40706350904313, "alt_km": 441.69649240079525, "timestamp": "2025-12-06T09:34:15.697300+00:00", "meta": {"OBJECT_NAME": "STARLINK-35407", "OBJECT_ID": "2025-253R", "EPOCH": "2025-12-05T22:00:03.000096", "MEAN_MOTION": 15.40650806, "ECCENTRICITY": 0.00017944, "INCLINATION": 43.0009, "RA_OF_ASC_NODE": 24.9541, "ARG_OF_PERICENTER": 267.3905, "MEAN_ANOMALY": 323.5818, "EPHEMERIS_TYPE": 0, "CLASSIFICATION_TYPE": "U", "NORAD_CAT_ID": 66334, "ELEMENT_SET_NO": 999, "REV_AT_EPOCH": 583, "BSTAR": 0.00090711195, "MEAN_MOTION_DOT": 0.00037715, "MEAN_MOTION_DDOT": 0}, "tle": {"line1": "1 66334U 25253R   25339.91670139  .00037715  00000+0  90711-3 0  9990", "line2": "2 66334  43.0009  24.9541 0001794 267.3905 323.5818 15.40650806  5839"}}, "geometry": {"type": "Point", "coordinates": [43.40706350904313, 18.64800551254085]}}, {"type": "Feature", "properties": {"norad_id": 66335, "name": "STARLINK-35417", "group": "last-30-days", "lat": -28.631543632903497, "lon": -13.515901866677979, "alt_km": 444.4259823104758, "timestamp": "2025-12-06T09:34:15.697310+00:00", "meta": {"OBJECT_NAME": "STARLINK-35417", "OBJECT_ID": "2025-253S", "EPOCH": "2025-12-04T12:39:05.398848", "MEAN_MOTION": 15.40748615, "ECCENTRICITY": 0.0001535, "INCLINATION": 43.0008, "RA_OF_ASC_NODE": 33.1389, "ARG_OF_PERICENTER": 260.139, "MEAN_ANOMALY": 99.9293, "EPHEMERIS_TYPE": 0, "CLASSIFICATION_TYPE": "U", "NORAD_CAT_ID": 66335, "ELEMENT_SET_NO": 999, "REV_AT_EPOCH": 565, "BSTAR": 0.0028892, "MEAN_MOTION_DOT": 0.00122539, "MEAN_MOTION_DDOT": 0}, "tle": {"line1": "1 66335U 25253S   25338.52714582  .00122539  00000+0  28892-2 0  9997", "line2": "2 66335  43.0008  33.1389 0001535 260.1390  99.9293 15.40748615  5650"}}, "geometry": {"type": "Point", "coordinates": [-13.515901866677979, -28.631543632903497]}}, {"type": "Feature", "properties": {"norad_id": 66336, "name": "STARLINK-35404", "group": "last-30-days", "lat": -16.524165472679073, "lon": -139.68932549100387, "alt_km": 416.1404945049171, "timestamp": "2025-12-06T09:34:15.697321+00:00", "meta": {"OBJECT_NAME": "STARLINK-35404", "OBJECT_ID": "2025-253T", "EPOCH": "2025-12-05T20:19:33.418848", "MEAN_MOTION": 15.50614041, "ECCENTRICITY": 0.00014278, "INCLINATION": 42.9998, "RA_OF_ASC_NODE": 24.9755, "ARG_OF_PERICENTER": 288.4587, "MEAN_ANOMALY": 71.6118, "EPHEMERIS_TYPE": 0, "CLASSIFICATION_TYPE": "U", "NORAD_CAT_ID": 66336, "ELEMENT_SET_NO": 999, "REV_AT_EPOCH": 586, "BSTAR": 0.0020146656, "MEAN_MOTION_DOT": 0.00119824, "MEAN_MOTION_DDOT": 0}, "tle": {"line1": "1 66336U 25253T   25339.84691457  .00119824  00000+0  20147-2 0  9997", "line2": "2 66336  42.9998  24.9755 0001427 288.4587  71.6118 15.50614041  5865"}}, "geometry": {"type": "Point", "coordinates": [-139.68932549100387, -16.524165472679073]}}, {"type": "Feature", "properties": {"norad_id": 66337, "name": "STARLINK-34783", "group": "last-30-days", "lat": -14.485351392264755, "lon": 6.197503190973665, "alt_km": 444.43782916297187, "timestamp": "2025-12-06T09:34:15.697332+00:00", "meta": {"OBJECT_NAME": "STARLINK-34783", "OBJECT_ID": "2025-253U", "EPOCH": "2025-12-05T13:26:19.211712", "MEAN_MOTION": 15.40707272, "ECCENTRICITY": 0.00012023, "INCLINATION": 43.0008, "RA_OF_ASC_NODE": 27.1281, "ARG_OF_PERICENTER": 287.5589, "MEAN_ANOMALY": 72.5136, "EPHEMERIS_TYPE": 0, "CLASSIFICATION_TYPE": "U", "NORAD_CAT_ID": 66337, "ELEMENT_SET_NO": 999, "REV_AT_EPOCH": 581, "BSTAR": 0.0022211656, "MEAN_MOTION_DOT": 0.00093648, "MEAN_MOTION_DDOT": 0}, "tle": {"line1": "1 66337U 25253U   25339.55994458  .00093648  00000+0  22212-2 0  9993", "line2": "2 66337  43.0008  27.1281 0001202 287.5589  72.5136 15.40707272  5815"}}, "geometry": {"type": "Point", "coordinates": [6.197503190973665, -14.485351392264755]}}, {"type": "Feature", "properties": {"norad_id": 66338, "name": "STARLINK-35477", "group": "last-30-days", "lat": -35.67534925115156, "lon": -28.006411907238633, "alt_km": 446.1866201013663, "timestamp": "2025-12-06T09:34:15.697342+00:00", "meta": {"OBJECT_NAME": "STARLINK-35477", "OBJECT_ID": "2025-253V", "EPOCH": "2025-12-05T12:02:38.855904", "MEAN_MOTION": 15.40689953, "ECCENTRICITY": 0.0001053, "INCLINATION": 43.0005, "RA_OF_ASC_NODE": 27.5548, "ARG_OF_PERICENTER": 236.7269, "MEAN_ANOMALY": 123.3487, "EPHEMERIS_TYPE": 0, "CLASSIFICATION_TYPE": "U", "NORAD_CAT_ID": 66338, "ELEMENT_SET_NO": 999, "REV_AT_EPOCH": 580, "BSTAR": 0.0024680175, "MEAN_MOTION_DOT": 0.00104175, "MEAN_MOTION_DDOT": 0}, "tle": {"line1": "1 66338U 25253V   25339.50183861  .00104175  00000+0  24680-2 0  9996", "line2": "2 66338  43.0005  27.5548 0001053 236.7269 123.3487 15.40689953  5806"}}, "geometry": {"type": "Point", "coordinates": [-28.006411907238633, -35.67534925115156]}}]}